NORAD_CAT_ID,OBJECT_NAME,OBJECT_TYPE,EPOCH,MEAN_MOTION,ECCENTRICITY,INCLINATION,RA_OF_ASC_NODE,ARG_OF_PERICENTER,MEAN_ANOMALY,BSTAR,MEAN_MOTION_DOT,MEAN_MOTION_DDOT,TLE_LINE0,TLE_LINE1,TLE_LINE2,SEMIMAJOR_AXIS,PERIOD,APOGEE,PERIGEE,DECAYED
55271.0,STARLINK-5306,PAYLOAD,2023-06-27 20:20:51,14.98331004,0.0003024,70.0002,10.2222,267.5592,92.5221,1.5454e-05,9.1e-07,0.0,0 STARLINK-5306,1 55271U 23010C   23178.84781261  .00000091  00000-0  15454-4 0  9997,2 55271  70.0002  10.2222 0003024 267.5592  92.5221 14.98331004 24803,6950.19,96.107,574.157,569.953,0.0
55271.0,STARLINK-5306,PAYLOAD,2023-06-28 18:46:44,14.98323168,0.0003141,70.0006,7.8646,271.1185,88.9614,8.2835e-05,8.95e-06,0.0,0 STARLINK-5306,1 55271U 23010C   23179.78245581  .00000895  00000-0  82835-4 0  9990,2 55271  70.0006   7.8646 0003141 271.1185  88.9614 14.98323168 24940,6950.214,96.107,574.262,569.896,0.0
55271.0,STARLINK-5306,PAYLOAD,2023-06-29 18:48:45,14.98330145,0.0003279,69.9999,5.3404,270.3021,89.7763,-2.2634e-05,-3.63e-06,0.0,0 STARLINK-5306,1 55271U 23010C   23180.78385437 -.00000363  00000-0 -22634-4 0  9990,2 55271  69.9999   5.3404 0003279 270.3021  89.7763 14.98330145 25099,6950.192,96.107,574.336,569.778,0.0
55271.0,STARLINK-5306,PAYLOAD,2023-06-30 22:03:01,14.98333742,0.0003069,70.0002,2.4788,267.1278,92.953,4.1695e-05,4.05e-06,0.0,0 STARLINK-5306,1 55271U 23010C   23181.91876859  .00000405  00000-0  41695-4 0  9992,2 55271  70.0002   2.4788 0003069 267.1278  92.9530 14.98333742 25268,6950.181,96.107,574.179,569.913,0.0
55271.0,STARLINK-5306,PAYLOAD,2023-07-01 17:16:38,14.98327445,0.0003117,70.0003,0.4588,270.0938,89.9864,-2.6772e-05,-4.12e-06,0.0,0 STARLINK-5306,1 55271U 23010C   23182.71989409 -.00000412  00000-0 -26772-4 0  9996,2 55271  70.0003   0.4588 0003117 270.0938  89.9864 14.98327445 25387,6950.201,96.107,574.232,569.899,0.0
55271.0,STARLINK-5306,PAYLOAD,2023-07-02 04:29:34,14.98352571,0.0003226,70.0005,359.2805,272.4172,87.6618,-0.00039543,-4.811e-05,0.0,0 STARLINK-5306,1 55271U 23010C   23183.18720592 -.00004811  00000-0 -39543-3 0  9990,2 55271  70.0005 359.2805 0003226 272.4172  87.6618 14.98352571 25451,6950.123,96.106,574.23,569.746,0.0
55271.0,STARLINK-5306,PAYLOAD,2023-07-02 15:42:31,14.98332677,0.0003126,70.0004,358.1023,270.3825,89.6976,1.2101e-05,5.1e-07,0.0,0 STARLINK-5306,1 55271U 23010C   23183.65452889  .00000051  00000-0  12101-4 0  9995,2 55271  70.0004 358.1023 0003126 270.3825  89.6976 14.98332677 25523,6950.185,96.107,574.222,569.877,0.0
55271.0,STARLINK-5306,PAYLOAD,2023-07-03 17:20:40,14.98329144,0.0003163,70.0004,355.4092,268.9954,91.0842,2.7558e-05,2.36e-06,0.0,0 STARLINK-5306,1 55271U 23010C   23184.72268939  .00000236  00000-0  27558-4 0  9992,2 55271  70.0004 355.4092 0003163 268.9954  91.0842 14.98329144 25687,6950.196,96.107,574.259,569.862,0.0
55271.0,STARLINK-5306,PAYLOAD,2023-07-04 17:22:41,14.98328558,0.0003004,70.0007,352.8842,264.81,95.2716,-8.052e-06,-1.89e-06,0.0,0 STARLINK-5306,1 55271U 23010C   23185.72409057 -.00000189  00000-0 -80520-5 0  9999,2 55271  70.0007 352.8842 0003004 264.8100  95.2716 14.98328558 25837,6950.197,96.107,574.15,569.975,0.0
55271.0,STARLINK-5306,PAYLOAD,2023-07-05 17:24:42,14.98328767,0.0003144,70.0005,350.3588,267.9199,92.16,6.477e-06,-1.6e-07,0.0,0 STARLINK-5306,1 55271U 23010C   23186.72549038 -.00000016  00000-0  64770-5 0  9991,2 55271  70.0005 350.3588 0003144 267.9199  92.1600 14.98328767 25988,6950.197,96.107,574.247,569.877,0.0
55271.0,STARLINK-5306,PAYLOAD,2023-07-06 17:26:42,14.98333076,0.0003252,70.0006,347.8342,269.3032,90.7755,5.918e-05,6.13e-06,0.0,0 STARLINK-5306,1 55271U 23010C   23187.72688614  .00000613  00000-0  59180-4 0  9996,2 55271  70.0006 347.8342 0003252 269.3032  90.7755 14.98333076 26132,6950.183,96.107,574.309,569.788,0.0
55271.0,STARLINK-5306,PAYLOAD,2023-07-07 17:28:43,14.98332811,0.0003304,70.0004,345.3094,269.1971,90.8809,4.2549e-05,4.15e-06,0.0,0 STARLINK-5306,1 55271U 23010C   23188.72828585  .00000415  00000-0  42549-4 0  9991,2 55271  70.0004 345.3094 0003304 269.1971  90.8809 14.98332811 26288,6950.184,96.107,574.346,569.753,0.0
55271.0,STARLINK-5306,PAYLOAD,2023-07-08 19:06:52,14.98331406,0.0003172,70.0007,342.6162,267.211,92.8686,8.8766e-06,1.3e-07,0.0,0 STARLINK-5306,1 55271U 23010C   23189.79644592  .00000013  00000-0  88766-5 0  9999,2 55271  70.0007 342.6162 0003172 267.2110  92.8686 14.98331406 26446,6950.189,96.107,574.258,569.849,0.0
55271.0,STARLINK-5306,PAYLOAD,2023-07-09 19:08:54,14.9832711,0.0003135,70.001,340.0915,268.0203,92.0597,-3.2711e-05,-4.83e-06,0.0,0 STARLINK-5306,1 55271U 23010C   23190.79784996 -.00000483  00000-0 -32711-4 0  9995,2 55271  70.0010 340.0915 0003135 268.0203  92.0597 14.98327110 26595,6950.202,96.107,574.246,569.888,0.0
55271.0,STARLINK-5306,PAYLOAD,2023-07-10 15:58:38,14.98332272,0.0003197,70.0011,337.9034,269.3458,90.7335,3.412e-05,3.14e-06,0.0,0 STARLINK-5306,1 55271U 23010C   23191.66572464  .00000314  00000-0  34120-4 0  9994,2 55271  70.0011 337.9034 0003197 269.3458  90.7335 14.98332272 26722,6950.186,96.107,574.273,569.829,0.0
55271.0,STARLINK-5306,PAYLOAD,2023-07-11 16:00:39,14.98328612,0.0003231,70.001,335.3784,269.2659,90.813,4.0881e-05,3.95e-06,0.0,0 STARLINK-5306,1 55271U 23010C   23192.66712651  .00000395  00000-0  40881-4 0  9999,2 55271  70.0010 335.3784 0003231 269.2659  90.8130 14.98328612 26879,6950.197,96.107,574.308,569.817,0.0
55271.0,STARLINK-5306,PAYLOAD,2023-07-12 17:38:48,14.98335851,0.0003253,70.001,332.6849,268.5744,91.5043,2.6712e-05,2.26e-06,0.0,0 STARLINK-5306,1 55271U 23010C   23193.73528097  .00000226  00000-0  26712-4 0  9997,2 55271  70.0010 332.6849 0003253 268.5744  91.5043 14.98335851 27035,6950.175,96.107,574.301,569.779,0.0
55271.0,STARLINK-5306,PAYLOAD,2023-07-13 16:04:41,14.98328191,0.000326,70.0011,330.3286,268.0845,91.9941,-3.143e-05,-4.68e-06,0.0,0 STARLINK-5306,1 55271U 23010C   23194.66992710 -.00000468  00000-0 -31430-4 0  9990,2 55271  70.0011 330.3286 0003260 268.0845  91.9941 14.98328191 27176,6950.198,96.107,574.329,569.798,0.0
55271.0,STARLINK-5306,PAYLOAD,2023-07-14 17:42:50,14.98336854,0.0003276,70.0009,327.6355,267.7444,92.334,3.3596e-05,3.08e-06,0.0,0 STARLINK-5306,1 55271U 23010C   23195.73807906  .00000308  00000-0  33596-4 0  9997,2 55271  70.0009 327.6355 0003276 267.7444  92.3340 14.98336854 27338,6950.172,96.107,574.314,569.76,0.0
55271.0,STARLINK-5306,PAYLOAD,2023-07-15 11:20:19,14.9832551,0.000309,70.0014,325.7843,261.2736,98.8073,4.3076e-05,4.21e-06,0.0,0 STARLINK-5306,1 55271U 23010C   23196.47244491  .00000421  00000-0  43076-4 0  9993,2 55271  70.0014 325.7843 0003090 261.2736  98.8073 14.98325510 27445,6950.207,96.107,574.219,569.924,0.0
55271.0,STARLINK-5306,PAYLOAD,2023-07-16 17:46:52,14.983276,0.000315,70.0011,322.5865,267.7736,92.3062,-6.35e-05,-8.51e-06,0.0,0 STARLINK-5306,1 55271U 23010C   23197.74088831 -.00000851  00000-0 -63500-4 0  9991,2 55271  70.0011 322.5865 0003150 267.7736  92.3062 14.98327600 27639,6950.2,96.107,574.255,569.876,0.0
55271.0,STARLINK-5306,PAYLOAD,2023-07-17 16:12:45,14.98332687,0.0003215,70.001,320.23,268.8732,91.2059,5.2469e-05,5.33e-06,0.0,0 STARLINK-5306,1 55271U 23010C   23198.67552219  .00000533  00000-0  52469-4 0  9997,2 55271  70.0010 320.2300 0003215 268.8732  91.2059 14.98332687 27777,6950.185,96.107,574.284,569.815,0.0
55271.0,STARLINK-5306,PAYLOAD,2023-07-18 17:50:53,14.98335572,0.0003188,70.0012,317.5369,269.9348,90.1445,0.00011453,1.274e-05,0.0,0 STARLINK-5306,1 55271U 23010C   23199.74367763  .00001274  00000-0  11453-3 0  9994,2 55271  70.0012 317.5369 0003188 269.9348  90.1445 14.98335572 27938,6950.176,96.107,574.256,569.825,0.0
55271.0,STARLINK-5306,PAYLOAD,2023-07-19 09:52:15,14.98322503,0.0002744,70.0023,315.8531,258.814,101.2711,-3.512e-05,-5.12e-06,0.0,0 STARLINK-5306,1 55271U 23010C   23200.41129001 -.00000512  00000-0 -35120-4 0  9996,2 55271  70.0023 315.8531 0002744 258.8140 101.2711 14.98322503 28038,6950.216,96.107,573.988,570.174,0.0
55271.0,STARLINK-5306,PAYLOAD,2023-07-19 17:52:56,14.98304157,0.000277,70.0023,315.0122,260.3994,99.6852,0.00019918,2.283e-05,0.0,0 STARLINK-5306,1 55271U 23010C   23200.74509785  .00002283  00000-0  19918-3 0  9994,2 55271  70.0023 315.0122 0002770 260.3994  99.6852 14.98304157 28086,6950.273,96.109,574.063,570.213,0.0
55271.0,STARLINK-5306,PAYLOAD,2023-07-20 17:54:55,14.98338172,0.0003076,70.0016,312.4873,262.7715,97.3095,2.028e-05,1.49e-06,0.0,0 STARLINK-5306,1 55271U 23010C   23201.74647855  .00000149  00000-0  20280-4 0  9990,2 55271  70.0016 312.4873 0003076 262.7715  97.3095 14.98338172 28234,6950.168,96.106,574.17,569.895,0.0
55271.0,STARLINK-5306,PAYLOAD,2023-07-21 06:44:00,14.98327623,0.00032,70.0014,311.1403,265.0779,95.0015,0.00010678,1.181e-05,0.0,0 STARLINK-5306,1 55271U 23010C   23202.28056153  .00001181  00000-0  10678-3 0  9991,2 55271  70.0014 311.1403 0003200 265.0779  95.0015 14.98327623 28317,6950.2,96.107,574.289,569.841,0.0
55271.0,STARLINK-5306,PAYLOAD,2023-07-23 18:00:59,14.98327804,0.0002818,70.001,304.9118,274.2807,85.803,-4.1938e-05,-5.93e-06,0.0,0 STARLINK-5306,1 55271U 23010C   23204.75068584 -.00000593  00000-0 -41938-4 0  9998,2 55271  70.0010 304.9118 0002818 274.2807  85.8030 14.98327804 28993,6950.2,96.107,574.023,570.106,0.0
55271.0,STARLINK-5306,PAYLOAD,2023-07-25 11:40:28,14.98327556,0.0003292,70.001,300.5372,266.7863,93.2919,-6.7592e-06,-1.74e-06,0.0,0 STARLINK-5306,1 55271U 23010C   23206.48644304 -.00000174  00000-0 -67592-5 0  9990,2 55271  70.0010 300.5372 0003292 266.7863  93.2919 14.98327556 29255,6950.2,96.107,574.353,569.777,0.0
55271.0,STARLINK-5306,PAYLOAD,2023-07-26 08:30:13,14.98328444,0.0003424,70.0005,298.3488,266.36,93.7168,5.3658e-05,5.47e-06,0.0,0 STARLINK-5306,1 55271U 23010C   23207.35431804  .00000547  00000-0  53658-4 0  9995,2 55271  70.0005 298.3488 0003424 266.3600  93.7168 14.98328444 29385,6950.198,96.107,574.442,569.683,0.0
